GLOBALSTAR M035         
1 25851U 99037A   24132.69607442 -.00000076  00000+0 -47169-3 0  9993
2 25851  51.9942 230.3202 0013253  53.9485 117.1276 11.04530939 51896
GLOBALSTAR M032         
1 25852U 99037B   24132.55373875 -.00000058  00000+0  27875-3 0  9990
2 25852  51.9947  83.5439 0009549 210.1938 149.8312 11.19051979 89820
GLOBALSTAR M051         
1 25853U 99037C   24132.72037642 -.00000045  00000+0  66215-3 0  9996
2 25853  51.9798 289.3737 0001471 186.8474 173.2317 11.42196245 86513
GLOBALSTAR M030         
1 25854U 99037D   24132.90763214 -.00000065  00000+0  20741-3 0  9994
2 25854  51.9844 120.5421 0003856  47.9601 312.1543 11.55095734103677
GLOBALSTAR M048         
1 25872U 99041A   24132.93793250 -.00000029  00000+0  11004-2 0  9996
2 25872  51.9354 208.3681 0013871 209.4583 321.7045 11.33846077 79460
GLOBALSTAR M026         
1 25873U 99041B   24132.88505089 -.00000028  00000+0  13235-2 0  9999
2 25873  52.0044 352.0830 0000991 326.3294  46.7867 11.06837076104058
GLOBALSTAR M043         
1 25874U 99041C   24132.71356911 -.00000050  00000+0  52921-3 0  9991
2 25874  51.9409 300.5437 0012249 350.8240  22.1944 11.25681992 77660
GLOBALSTAR M028         
1 25875U 99041D   24132.76957484 -.00000101  00000+0 -64453-5 0  9992
2 25875  51.9633 309.9947 0062590 279.6368  79.7426 12.50554812139955
